[{"OBJECT_NAME":"ORBCOMM FM32","OBJECT_ID":"1999-065C","EPOCH":"2026-03-09T01:02:29.080032","MEAN_MOTION":14.3696516,"ECCENTRICITY":0.00057226,"INCLINATION":45.0154,"RA_OF_ASC_NODE":287.2018,"ARG_OF_PERICENTER":281.4865,"MEAN_ANOMALY":78.534,"EPHEMERIS_TYPE":0,"CLASSIFICATION_TYPE":"U","NORAD_CAT_ID":25982,"ELEMENT_SET_NO":999,"REV_AT_EPOCH":37268,"BSTAR":0.00040930249,"MEAN_MOTION_DOT":1.082e-5,"MEAN_MOTION_DDOT":0},{"OBJECT_NAME":"CZ-4 DEB","OBJECT_ID":"1990-081AL","EPOCH":"2026-03-09T23:36:45.246528","MEAN_MOTION":14.39837283,"ECCENTRICITY":0.00158371,"INCLINATION":98.4617,"RA_OF_ASC_NODE":74.2018,"ARG_OF_PERICENTER":93.752,"MEAN_ANOMALY":325.7825,"EPHEMERIS_TYPE":0,"CLASSIFICATION_TYPE":"U","NORAD_CAT_ID":20876,"ELEMENT_SET_NO":999,"REV_AT_EPOCH":84292,"BSTAR":0.00096269468,"MEAN_MOTION_DOT":2.984e-5,"MEAN_MOTION_DDOT":0}]
